[{"OBJECT_NAME":"ONEWEB-0102","OBJECT_ID":"2020-100A","EPOCH":"2026-03-09T20:57:22.472064","MEAN_MOTION":13.12443626,"ECCENTRICITY":0.00018552,"INCLINATION":87.8996,"RA_OF_ASC_NODE":10.3932,"ARG_OF_PERICENTER":87.529,"MEAN_ANOMALY":272.6051,"EPHEMERIS_TYPE":0,"CLASSIFICATION_TYPE":"U","NORAD_CAT_ID":47258,"ELEMENT_SET_NO":999,"REV_AT_EPOCH":25170,"BSTAR":-0.00065315668,"MEAN_MOTION_DOT":-2.22e-6,"MEAN_MOTION_DDOT":0},{"OBJECT_NAME":"UNKNOWN","OBJECT_ID":"","EPOCH":"2026-03-09T08:27:49.820544","MEAN_MOTION":13.19542552,"ECCENTRICITY":0.0119624,"INCLINATION":100.743,"RA_OF_ASC_NODE":271.3979,"ARG_OF_PERICENTER":165.8522,"MEAN_ANOMALY":194.5989,"EPHEMERIS_TYPE":0,"CLASSIFICATION_TYPE":"U","NORAD_CAT_ID":87771,"ELEMENT_SET_NO":999,"REV_AT_EPOCH":54651,"BSTAR":0.00035572,"MEAN_MOTION_DOT":1.01e-6,"MEAN_MOTION_DDOT":0}]
